LYNK TOWER 4            
1 55034U 23001AB  26068.67743801  .00009160  00000+0  30014-3 0  9997
2 55034  97.3324 128.5940 0010321 112.3386 247.8950 15.31819885176588
STARLINK-31170          
1 58801U 24012Q   26068.35181041 -.00003345  00000+0 -11202-3 0  9991
2 58801  43.0034 167.2088 0001835 273.3842  86.6800 15.27596261121181
